CZ-2C R/B               
1 54039U 22132E   26008.55732577  .00038648  00000+0  53561-3 0  9999
2 54039  97.2952  10.3047 0017929 320.1619  39.8319 15.56789918181004
GSLV R/B                
1 54149U 22138AN  26008.54115576  .00003093  00000+0  26995-3 0  9997
2 54149  87.3828 186.4965 0022353  16.4457 343.7494 14.96303315174935
XRISM                   
1 57800U 23137A   26008.20058572  .00006805  00000+0  39492-3 0  9999
2 57800  31.0030 314.6652 0007816 154.6368 205.4655 15.10703675128633
ACS3                    
1 59588U 24077B   26008.60543086  .00020308  00000+0  17064-1 0  9994
2 59588  97.2474 323.2074 0064896 270.6777  88.6949 13.86953543 85868
SZ-21 MODULE            
1 66515U 25246C   26007.86050997  .00025291  00000+0  26192-3 0  9992
2 66515  41.4742 216.5245 0001494  84.1343 275.9668 15.64106684  8533
